GLOBALSTAR M084         
1 38040U 11080A   25330.17043632 -.00000068  00000+0  20213-3 0  9999
2 38040  52.0018 275.3389 0000900  46.0637  57.4615 12.62265756643121
GLOBALSTAR M080         
1 38041U 11080B   25330.05780463 -.00000070  00000+0  19076-3 0  9995
2 38041  52.0070 277.3294 0000591 102.6410 338.6963 12.62271505643232
GLOBALSTAR M082         
1 38042U 11080C   25330.05832897 -.00000078  00000+0  14258-3 0  9990
2 38042  52.0074 232.8076 0000747  89.6237 283.8694 12.62265360643947
GLOBALSTAR M092         
1 38043U 11080D   25330.20512956 -.00000107  00000+0 -17081-4 0  9991
2 38043  52.0105 322.7463 0000363  64.7192  15.6483 12.62267719642418
GLOBALSTAR M090         
1 38044U 11080E   25330.19769411 -.00000071  00000+0  18071-3 0  9998
2 38044  52.0116 226.2743 0000739  68.7117  97.3686 12.62264676644073
GLOBALSTAR M086         
1 38045U 11080F   25330.13919669 -.00000066  00000+0  21257-3 0  9999
2 38045  51.9890 226.7124 0001040   2.3484 146.4092 12.62280324644015
GLOBALSTAR M097         
1 39072U 13005A   25329.73849397 -.00000099  00000+0  24535-4 0  9992
2 39072  52.0016 142.6512 0000836  96.7066 263.3896 12.62267741591212
GLOBALSTAR M093         
1 39073U 13005B   25329.71244532 -.00000105  00000+0 -86561-5 0  9998
2 39073  52.0076 136.0004 0000669 108.7235 251.3705 12.62270755591167
